CCSDS_OMM_VERS = 2.0
CREATION_DATE  = 
ORIGINATOR     = 

OBJECT_NAME    = DELTA 1 R/B
OBJECT_ID      = 1989-089B
CENTER_NAME    = EARTH
REF_FRAME      = TEME
TIME_SYSTEM    = UTC
MEAN_ELEMENT_THEORY = SGP/SGP4

EPOCH          = 2025-10-31T15:07:19.331040
MEAN_MOTION    = 14.50519061
ECCENTRICITY   = .0069411
INCLINATION    = 97.0799
RA_OF_ASC_NODE = 167.5332
ARG_OF_PERICENTER = 169.2053
MEAN_ANOMALY   = 191.0654

EPHEMERIS_TYPE = 0
CLASSIFICATION_TYPE = U
NORAD_CAT_ID   = 20323
ELEMENT_SET_NO = 999
REV_AT_EPOCH   = 87702
BSTAR          = .12261E-3
MEAN_MOTION_DOT = .46E-5
MEAN_MOTION_DDOT = 0

CCSDS_OMM_VERS = 2.0
CREATION_DATE  = 
ORIGINATOR     = 

OBJECT_NAME    = ARIANE 40 R/B
OBJECT_ID      = 1990-005H
CENTER_NAME    = EARTH
REF_FRAME      = TEME
TIME_SYSTEM    = UTC
MEAN_ELEMENT_THEORY = SGP/SGP4

EPOCH          = 2025-10-31T14:59:44.353824
MEAN_MOTION    = 14.39748755
ECCENTRICITY   = .0009283
INCLINATION    = 98.3302
RA_OF_ASC_NODE = 3.9814
ARG_OF_PERICENTER = 228.4549
MEAN_ANOMALY   = 131.5844

EPHEMERIS_TYPE = 0
CLASSIFICATION_TYPE = U
NORAD_CAT_ID   = 20443
ELEMENT_SET_NO = 999
REV_AT_EPOCH   = 87423
BSTAR          = .14991E-3
MEAN_MOTION_DOT = .427E-5
MEAN_MOTION_DDOT = 0

CCSDS_OMM_VERS = 2.0
CREATION_DATE  = 
ORIGINATOR     = 

OBJECT_NAME    = DELTA 2 R/B(1)
OBJECT_ID      = 1990-008B
CENTER_NAME    = EARTH
REF_FRAME      = TEME
TIME_SYSTEM    = UTC
MEAN_ELEMENT_THEORY = SGP/SGP4

EPOCH          = 2025-10-31T05:55:57.902880
MEAN_MOTION    = 15.41360453
ECCENTRICITY   = .0118375
INCLINATION    = 35.6069
RA_OF_ASC_NODE = 294.1149
ARG_OF_PERICENTER = 152.2396
MEAN_ANOMALY   = 208.4717

EPHEMERIS_TYPE = 0
CLASSIFICATION_TYPE = U
NORAD_CAT_ID   = 20453
ELEMENT_SET_NO = 999
REV_AT_EPOCH   = 90606
BSTAR          = .77144E-3
MEAN_MOTION_DOT = .42976E-3
MEAN_MOTION_DDOT = 0

CCSDS_OMM_VERS = 2.0
CREATION_DATE  = 
ORIGINATOR     = 

OBJECT_NAME    = COSMOS 2058
OBJECT_ID      = 1990-010A
CENTER_NAME    = EARTH
REF_FRAME      = TEME
TIME_SYSTEM    = UTC
MEAN_ELEMENT_THEORY = SGP/SGP4

EPOCH          = 2025-10-31T14:50:16.514016
MEAN_MOTION    = 15.10003259
ECCENTRICITY   = .0011508
INCLINATION    = 82.4697
RA_OF_ASC_NODE = 174.4613
ARG_OF_PERICENTER = 57.7718
MEAN_ANOMALY   = 302.4625

EPHEMERIS_TYPE = 0
CLASSIFICATION_TYPE = U
NORAD_CAT_ID   = 20465
ELEMENT_SET_NO = 999
REV_AT_EPOCH   = 92275
BSTAR          = .2804E-3
MEAN_MOTION_DOT = .4589E-4
MEAN_MOTION_DDOT = 0

CCSDS_OMM_VERS = 2.0
CREATION_DATE  = 
ORIGINATOR     = 

OBJECT_NAME    = SL-14 R/B
OBJECT_ID      = 1990-010B
CENTER_NAME    = EARTH
REF_FRAME      = TEME
TIME_SYSTEM    = UTC
MEAN_ELEMENT_THEORY = SGP/SGP4

EPOCH          = 2025-10-31T15:43:28.441056
MEAN_MOTION    = 14.83412809
ECCENTRICITY   = .0020017
INCLINATION    = 82.5053
RA_OF_ASC_NODE = 28.5631
ARG_OF_PERICENTER = 9.5663
MEAN_ANOMALY   = 350.5929

EPHEMERIS_TYPE = 0
CLASSIFICATION_TYPE = U
NORAD_CAT_ID   = 20466
ELEMENT_SET_NO = 999
REV_AT_EPOCH   = 90935
BSTAR          = .75893E-4
MEAN_MOTION_DOT = .648E-5
MEAN_MOTION_DDOT = 0

CCSDS_OMM_VERS = 2.0
CREATION_DATE  = 
ORIGINATOR     = 

OBJECT_NAME    = SL-14 R/B
OBJECT_ID      = 1990-018B
CENTER_NAME    = EARTH
REF_FRAME      = TEME
TIME_SYSTEM    = UTC
MEAN_ELEMENT_THEORY = SGP/SGP4

EPOCH          = 2025-10-31T14:47:37.728096
MEAN_MOTION    = 14.81987539
ECCENTRICITY   = .0017138
INCLINATION    = 82.5222
RA_OF_ASC_NODE = 343.7395
ARG_OF_PERICENTER = 152.3155
MEAN_ANOMALY   = 207.8975

EPHEMERIS_TYPE = 0
CLASSIFICATION_TYPE = U
NORAD_CAT_ID   = 20511
ELEMENT_SET_NO = 999
REV_AT_EPOCH   = 90346
BSTAR          = .68531E-4
MEAN_MOTION_DOT = .568E-5
MEAN_MOTION_DDOT = 0

CCSDS_OMM_VERS = 2.0
CREATION_DATE  = 
ORIGINATOR     = 

OBJECT_NAME    = HST
OBJECT_ID      = 1990-037B
CENTER_NAME    = EARTH
REF_FRAME      = TEME
TIME_SYSTEM    = UTC
MEAN_ELEMENT_THEORY = SGP/SGP4

EPOCH          = 2025-10-31T09:26:37.847040
MEAN_MOTION    = 15.27245906
ECCENTRICITY   = .0001996
INCLINATION    = 28.4670
RA_OF_ASC_NODE = 200.5465
ARG_OF_PERICENTER = 117.3309
MEAN_ANOMALY   = 242.7489

EPHEMERIS_TYPE = 0
CLASSIFICATION_TYPE = U
NORAD_CAT_ID   = 20580
ELEMENT_SET_NO = 999
REV_AT_EPOCH   = 75351
BSTAR          = .35055E-3
MEAN_MOTION_DOT = .9859E-4
MEAN_MOTION_DDOT = 0

CCSDS_OMM_VERS = 2.0
CREATION_DATE  = 
ORIGINATOR     = 

OBJECT_NAME    = SL-16 R/B
OBJECT_ID      = 1990-046B
CENTER_NAME    = EARTH
REF_FRAME      = TEME
TIME_SYSTEM    = UTC
MEAN_ELEMENT_THEORY = SGP/SGP4

EPOCH          = 2025-10-31T16:24:31.877856
MEAN_MOTION    = 14.14992366
ECCENTRICITY   = .0012739
INCLINATION    = 70.9998
RA_OF_ASC_NODE = 208.8407
ARG_OF_PERICENTER = 148.7096
MEAN_ANOMALY   = 211.4788

EPHEMERIS_TYPE = 0
CLASSIFICATION_TYPE = U
NORAD_CAT_ID   = 20625
ELEMENT_SET_NO = 999
REV_AT_EPOCH   = 83014
BSTAR          = .29911E-4
MEAN_MOTION_DOT = .1E-6
MEAN_MOTION_DDOT = 0

CCSDS_OMM_VERS = 2.0
CREATION_DATE  = 
ORIGINATOR     = 

OBJECT_NAME    = COSMOS 2084
OBJECT_ID      = 1990-055A
CENTER_NAME    = EARTH
REF_FRAME      = TEME
TIME_SYSTEM    = UTC
MEAN_ELEMENT_THEORY = SGP/SGP4

EPOCH          = 2025-10-31T15:18:08.486208
MEAN_MOTION    = 15.04630714
ECCENTRICITY   = .0038781
INCLINATION    = 62.7911
RA_OF_ASC_NODE = 55.4081
ARG_OF_PERICENTER = 169.7461
MEAN_ANOMALY   = 190.4439

EPHEMERIS_TYPE = 0
CLASSIFICATION_TYPE = U
NORAD_CAT_ID   = 20663
ELEMENT_SET_NO = 999
REV_AT_EPOCH   = 91689
BSTAR          = .36389E-3
MEAN_MOTION_DOT = .502E-4
MEAN_MOTION_DDOT = 0

CCSDS_OMM_VERS = 2.0
CREATION_DATE  = 
ORIGINATOR     = 

OBJECT_NAME    = SL-6 R/B(2)
OBJECT_ID      = 1990-055D
CENTER_NAME    = EARTH
REF_FRAME      = TEME
TIME_SYSTEM    = UTC
MEAN_ELEMENT_THEORY = SGP/SGP4

EPOCH          = 2025-10-31T10:49:36.329952
MEAN_MOTION    = 15.02762125
ECCENTRICITY   = .0010679
INCLINATION    = 62.7849
RA_OF_ASC_NODE = 333.0727
ARG_OF_PERICENTER = 270.6761
MEAN_ANOMALY   = 89.3114

EPHEMERIS_TYPE = 0
CLASSIFICATION_TYPE = U
NORAD_CAT_ID   = 20666
ELEMENT_SET_NO = 999
REV_AT_EPOCH   = 91876
BSTAR          = .24484E-3
MEAN_MOTION_DOT = .3098E-4
MEAN_MOTION_DDOT = 0

CCSDS_OMM_VERS = 2.0
CREATION_DATE  = 
ORIGINATOR     = 

OBJECT_NAME    = SL-8 R/B
OBJECT_ID      = 1990-078B
CENTER_NAME    = EARTH
REF_FRAME      = TEME
TIME_SYSTEM    = UTC
MEAN_ELEMENT_THEORY = SGP/SGP4

EPOCH          = 2025-10-31T14:40:43.142880
MEAN_MOTION    = 14.83797552
ECCENTRICITY   = .0383234
INCLINATION    = 82.9090
RA_OF_ASC_NODE = 6.9375
ARG_OF_PERICENTER = 86.6349
MEAN_ANOMALY   = 277.8619

EPHEMERIS_TYPE = 0
CLASSIFICATION_TYPE = U
NORAD_CAT_ID   = 20775
ELEMENT_SET_NO = 999
REV_AT_EPOCH   = 79012
BSTAR          = .53999E-3
MEAN_MOTION_DOT = .17474E-3
MEAN_MOTION_DDOT = 0

CCSDS_OMM_VERS = 2.0
CREATION_DATE  = 
ORIGINATOR     = 

OBJECT_NAME    = SL-8 R/B
OBJECT_ID      = 1991-006B
CENTER_NAME    = EARTH
REF_FRAME      = TEME
TIME_SYSTEM    = UTC
MEAN_ELEMENT_THEORY = SGP/SGP4

EPOCH          = 2025-10-31T15:27:18.885312
MEAN_MOTION    = 13.77480496
ECCENTRICITY   = .0023495
INCLINATION    = 82.9398
RA_OF_ASC_NODE = 266.0280
ARG_OF_PERICENTER = 39.5031
MEAN_ANOMALY   = 133.8937

EPHEMERIS_TYPE = 0
CLASSIFICATION_TYPE = U
NORAD_CAT_ID   = 21088
ELEMENT_SET_NO = 999
REV_AT_EPOCH   = 74630
BSTAR          = .1585E-3
MEAN_MOTION_DOT = .173E-5
MEAN_MOTION_DDOT = 0

