DELTA 1 R/B             
1 20323U 89089B   25304.63008485  .00000460  00000+0  12261-3 0  9996
2 20323  97.0799 167.5332 0069411 169.2053 191.0654 14.50519061877029
ARIANE 40 R/B           
1 20443U 90005H   25304.62481891  .00000427  00000+0  14991-3 0  9999
2 20443  98.3302   3.9814 0009283 228.4549 131.5844 14.39748755874234
DELTA 2 R/B(1)          
1 20453U 90008B   25304.24719795  .00042976  00000+0  77144-3 0  9992
2 20453  35.6069 294.1149 0118375 152.2396 208.4717 15.41360453906060
COSMOS 2058             
1 20465U 90010A   25304.61824669  .00004589  00000+0  28040-3 0  9995
2 20465  82.4697 174.4613 0011508  57.7718 302.4625 15.10003259922754
SL-14 R/B               
1 20466U 90010B   25304.65519029  .00000648  00000+0  75893-4 0  9992
2 20466  82.5053  28.5631 0020017   9.5663 350.5929 14.83412809909356
SL-14 R/B               
1 20511U 90018B   25304.61640889  .00000568  00000+0  68531-4 0  9998
2 20511  82.5222 343.7395 0017138 152.3155 207.8975 14.81987539903463
HST                     
1 20580U 90037B   25304.39349360  .00009859  00000+0  35055-3 0  9996
2 20580  28.4670 200.5465 0001996 117.3309 242.7489 15.27245906753513
SL-16 R/B               
1 20625U 90046B   25304.68370229  .00000010  00000+0  29911-4 0  9991
2 20625  70.9998 208.8407 0012739 148.7096 211.4788 14.14992366830147
COSMOS 2084             
1 20663U 90055A   25304.63759822  .00005020  00000+0  36389-3 0  9990
2 20663  62.7911  55.4081 0038781 169.7461 190.4439 15.04630714916893
SL-6 R/B(2)             
1 20666U 90055D   25304.45111493  .00003098  00000+0  24484-3 0  9995
2 20666  62.7849 333.0727 0010679 270.6761  89.3114 15.02762125918763
SL-8 R/B                
1 20775U 90078B   25304.61161045  .00017474  00000+0  53999-3 0  9993
2 20775  82.9090   6.9375 0383234  86.6349 277.8619 14.83797552790120
SL-8 R/B                
1 21088U 91006B   25304.64396858  .00000173  00000+0  15850-3 0  9990
2 21088  82.9398 266.0280 0023495  39.5031 133.8937 13.77480496746301
